[{"OBJECT_NAME":"BUFENG 1A","OBJECT_ID":"2019-032A","EPOCH":"2026-03-09T22:03:27.507168","MEAN_MOTION":15.26012088,"ECCENTRICITY":0.00054719,"INCLINATION":44.9758,"RA_OF_ASC_NODE":238.6688,"ARG_OF_PERICENTER":55.4463,"MEAN_ANOMALY":304.6935,"EPHEMERIS_TYPE":0,"CLASSIFICATION_TYPE":"U","NORAD_CAT_ID":44310,"ELEMENT_SET_NO":999,"REV_AT_EPOCH":37201,"BSTAR":0.00062413703,"MEAN_MOTION_DOT":0.00016103,"MEAN_MOTION_DDOT":0},{"OBJECT_NAME":"STARLINK-31593","OBJECT_ID":"2024-060C","EPOCH":"2026-03-09T12:50:10.991616","MEAN_MOTION":15.27569226,"ECCENTRICITY":0.00010823,"INCLINATION":43.0021,"RA_OF_ASC_NODE":260.3484,"ARG_OF_PERICENTER":292.787,"MEAN_ANOMALY":67.2868,"EPHEMERIS_TYPE":0,"CLASSIFICATION_TYPE":"U","NORAD_CAT_ID":59350,"ELEMENT_SET_NO":999,"REV_AT_EPOCH":11004,"BSTAR":-2.7294237e-5,"MEAN_MOTION_DOT":-1.013e-5,"MEAN_MOTION_DDOT":0}]
